{
  "type": "FeatureCollection",
  "features": [
    {
      "type": "Feature",
      "properties": {
        "name": "Kanjirappally",
        "region_type": "Panchayat",
        "district": "Kottayam",
        "state": "Kerala"
      },
      "geometry": {
        "type": "Polygon",
        "coordinates": [
          [
            [76.7700, 9.5200],
            [76.8000, 9.5100],
            [76.8300, 9.5150],
            [76.8600, 9.5250],
            [76.8800, 9.5400],
            [76.8900, 9.5600],
            [76.8850, 9.5850],
            [76.8700, 9.6050],
            [76.8500, 9.6200],
            [76.8200, 9.6300],
            [76.7950, 9.6250],
            [76.7700, 9.6100],
            [76.7550, 9.5900],
            [76.7500, 9.5650],
            [76.7550, 9.5400],
            [76.7700, 9.5200]
          ]
        ]
      }
    }
  ]
}
